0 DELTA 2 R/B(1)
1 21891U 92009B   21340.56251583  .00000764  00000-0  41722-4 0  9993
2 21891  19.9972 308.2355 0046879  88.9131 271.6658 14.83507205588168
0 ARIANE 3 DEB
1 27740U 84114E   21340.22936550  .00043411 -64129-5  13372-2 0  9999
2 27740   6.7540 336.7363 2441032   8.1201  72.6237 10.51726576887339
0 ARIANE 5 R/B
1 29165U 06020D   21340.07502254  .00003336  00000-0  53991-3 0  9991
2 29165   6.8801 277.6242 5674734 306.1008  13.7635  4.54287803169778
0 PSLV R/B
1 29713U 07001E   21340.56076510  .00000358  00000-0  47238-4 0  9994
2 29713  97.9819 316.2106 0025587 143.1329 217.1651 14.85933120806447
0 H-2A R/B
1 41341U 16012E   21340.51852655  .00001037  00000-0  62654-4 0  9998
2 41341  30.6268  20.9201 0017638  58.8271 301.4086 15.05770418319429
